OBJECT B                
1 51825U 22019B   24185.91251932  .00011158  00000+0  48412-3 0  9994
2 51825  97.4291 257.0549 0014895 174.5829 185.5571 15.22409189129779
